[
    {
        "Altitude(m)": 610399.502740962,
        "Argument of Periapsis(deg)": 0.0,
        "Eccentricity": 0.0,
        "Inclination(deg)": 60.0,
        "Latitude(deg)": 52.11126294818712,
        "Longitude(deg)": -102.41566423200622,
        "Mean Anomaly(deg)": -294.5455,
        "RAAN(deg)": 310.0,
        "Satellite Name": "Test1 1368",
        "Satellite Number": 1368,
        "Semi-Major Axis(m)": 6980739.136638005,
        "Time(s)": 0
    },
    {
        "Altitude(m)": 610481.6537985482,
        "Argument of Periapsis(deg)": 0.00010418945913296404,
        "Eccentricity": 0.0,
        "Inclination(deg)": 60.0,
        "Latitude(deg)": 52.47086489445265,
        "Longitude(deg)": -101.63352889749858,
        "Mean Anomaly(deg)": -293.9253938545382,
        "RAAN(deg)": 309.99957995086027,
        "Satellite Name": "Test1 1368",
        "Satellite Number": 1368,
        "Semi-Major Axis(m)": 6980739.136638005,
        "Time(s)": 10
    },
    {
        "Altitude(m)": 610562.3436777542,
        "Argument of Periapsis(deg)": 0.0002083789182659281,
        "Eccentricity": 0.0,
        "Inclination(deg)": 60.0,
        "Latitude(deg)": 52.8246194457955,
        "Longitude(deg)": -100.83798061532562,
        "Mean Anomaly(deg)": -293.30528770907637,
        "RAAN(deg)": 309.99915990172053,
        "Satellite Name": "Test1 1368",
        "Satellite Number": 1368,
        "Semi-Major Axis(m)": 6980739.136638005,
        "Time(s)": 20
    },
    {
        "Altitude(m)": 610641.5249126303,
        "Argument of Periapsis(deg)": 0.00031256837739889213,
        "Eccentricity": 0.0,
        "Inclination(deg)": 60.0,
        "Latitude(deg)": 53.172357075890666,
        "Longitude(deg)": -100.02885487641497,
        "Mean Anomaly(deg)": -292.6851815636145,
        "RAAN(deg)": 309.9987398525808,
        "Satellite Name": "Test1 1368",
        "Satellite Number": 1368,
        "Semi-Major Axis(m)": 6980739.136638005,
        "Time(s)": 30
    },
    {
        "Altitude(m)": 610719.1509936999,
        "Argument of Periapsis(deg)": 0.0004167578365318562,
        "Eccentricity": 0.0,
        "Inclination(deg)": 60.0,
        "Latitude(deg)": 53.51390478253075,
        "Longitude(deg)": -99.20599878414532,
        "Mean Anomaly(deg)": -292.0650754181527,
        "RAAN(deg)": 309.99831980344106,
        "Satellite Name": "Test1 1368",
        "Satellite Number": 1368,
        "Semi-Major Axis(m)": 6980739.136638005,
        "Time(s)": 40
    },
    {
        "Altitude(m)": 610795.1763902389,
        "Argument of Periapsis(deg)": 0.0005209472956648203,
        "Eccentricity": 0.0,
        "Inclination(deg)": 60.0,
        "Latitude(deg)": 53.84908620959137,
        "Longitude(deg)": -98.36927346851795,
        "Mean Anomaly(deg)": -291.44496927269086,
        "RAAN(deg)": 309.99789975430133,
        "Satellite Name": "Test1 1368",
        "Satellite Number": 1368,
        "Semi-Major Axis(m)": 6980739.136638005,
        "Time(s)": 50
    },
    {
        "Altitude(m)": 610869.5565721533,
        "Argument of Periapsis(deg)": 0.0006251367547977843,
        "Eccentricity": 0.0,
        "Inclination(deg)": 60.0,
        "Latitude(deg)": 54.17772179331966,
        "Longitude(deg)": -97.51855505310294,
        "Mean Anomaly(deg)": -290.82486312722904,
        "RAAN(deg)": 309.99747970516154,
        "Satellite Name": "Test1 1368",
        "Satellite Number": 1368,
        "Semi-Major Axis(m)": 6980739.136638005,
        "Time(s)": 60
    },
    {
        "Altitude(m)": 610942.2480312781,
        "Argument of Periapsis(deg)": 0.0007293262139307483,
        "Eccentricity": 0.0,
        "Inclination(deg)": 60.0,
        "Latitude(deg)": 54.49962893461221,
        "Longitude(deg)": -96.6537356833219,
        "Mean Anomaly(deg)": -290.2047569817672,
        "RAAN(deg)": 309.99705965602186,
        "Satellite Name": "Test1 1368",
        "Satellite Number": 1368,
        "Semi-Major Axis(m)": 6980739.136638005,
        "Time(s)": 70
    },
    {
        "Altitude(m)": 611013.2083022065,
        "Argument of Periapsis(deg)": 0.0008335156730637124,
        "Eccentricity": 0.0,
        "Inclination(deg)": 60.0,
        "Latitude(deg)": 54.81462219890658,
        "Longitude(deg)": -95.7747261233239,
        "Mean Anomaly(deg)": -289.58465083630534,
        "RAAN(deg)": 309.99663960688207,
        "Satellite Name": "Test1 1368",
        "Satellite Number": 1368,
        "Semi-Major Axis(m)": 6980739.136638005,
        "Time(s)": 80
    },
    {
        "Altitude(m)": 611082.3959825924,
        "Argument of Periapsis(deg)": 0.0009377051321966765,
        "Eccentricity": 0.0,
        "Inclination(deg)": 60.0,
        "Latitude(deg)": 55.122513545244175,
        "Longitude(deg)": -94.88145688866643,
        "Mean Anomaly(deg)": -288.9645446908435,
        "RAAN(deg)": 309.9962195577423,
        "Satellite Name": "Test1 1368",
        "Satellite Number": 1368,
        "Semi-Major Axis(m)": 6980739.136638005,
        "Time(s)": 90
    },
    {
        "Altitude(m)": 611149.7707529288,
        "Argument of Periapsis(deg)": 0.0010418945913296407,
        "Eccentricity": 0.0,
        "Inclination(deg)": 60.0,
        "Latitude(deg)": 55.42311258596588,
        "Longitude(deg)": -93.97387941908445,
        "Mean Anomaly(deg)": -288.3444385453817,
        "RAAN(deg)": 309.99579950860254,
        "Satellite Name": "Test1 1368",
        "Satellite Number": 1368,
        "Semi-Major Axis(m)": 6980739.136638005,
        "Time(s)": 100
    },
    {
        "Altitude(m)": 611215.2933958003,
        "Argument of Periapsis(deg)": 0.0011460840504626045,
        "Eccentricity": 0.0,
        "Inclination(deg)": 60.0,
        "Latitude(deg)": 55.716226878368694,
        "Longitude(deg)": -93.05196879399097,
        "Mean Anomaly(deg)": -287.7243323999199,
        "RAAN(deg)": 309.9953794594628,
        "Satellite Name": "Test1 1368",
        "Satellite Number": 1368,
        "Semi-Major Axis(m)": 6980739.136638005,
        "Time(s)": 110
    },
    {
        "Altitude(m)": 611278.9258145704,
        "Argument of Periapsis(deg)": 0.0012502735095955685,
        "Eccentricity": 0.0,
        "Inclination(deg)": 60.0,
        "Latitude(deg)": 56.00166224948125,
        "Longitude(deg)": -92.11572495302231,
        "Mean Anomaly(deg)": -287.104226254458,
        "RAAN(deg)": 309.9949594103231,
        "Satellite Name": "Test1 1368",
        "Satellite Number": 1368,
        "Semi-Major Axis(m)": 6980739.136638005,
        "Time(s)": 120
    },
    {
        "Altitude(m)": 611340.631051539,
        "Argument of Periapsis(deg)": 0.0013544629687285324,
        "Eccentricity": 0.0,
        "Inclination(deg)": 60.0,
        "Latitude(deg)": 56.27922315490643,
        "Longitude(deg)": -91.16517392077634,
        "Mean Anomaly(deg)": -286.4841201089962,
        "RAAN(deg)": 309.99453936118334,
        "Satellite Name": "Test1 1368",
        "Satellite Number": 1368,
        "Semi-Major Axis(m)": 6980739.136638005,
        "Time(s)": 130
    },
    {
        "Altitude(m)": 611400.3733055625,
        "Argument of Periapsis(deg)": 0.0014586524278614966,
        "Eccentricity": 0.0,
        "Inclination(deg)": 60.0,
        "Latitude(deg)": 56.548713072424576,
        "Longitude(deg)": -90.20037053309068,
        "Mean Anomaly(deg)": -285.8640139635344,
        "RAAN(deg)": 309.9941193120436,
        "Satellite Name": "Test1 1368",
        "Satellite Number": 1368,
        "Semi-Major Axis(m)": 6980739.136638005,
        "Time(s)": 140
    },
    {
        "Altitude(m)": 611458.1179490493,
        "Argument of Periapsis(deg)": 0.0015628418869944607,
        "Eccentricity": 0.0,
        "Inclination(deg)": 60.0,
        "Latitude(deg)": 56.80993493075296,
        "Longitude(deg)": -89.2213996218041,
        "Mean Anomaly(deg)": -285.24390781807256,
        "RAAN(deg)": 309.9936992629039,
        "Satellite Name": "Test1 1368",
        "Satellite Number": 1368,
        "Semi-Major Axis(m)": 6980739.136638005,
        "Time(s)": 150
    },
    {
        "Altitude(m)": 611513.8315444532,
        "Argument of Periapsis(deg)": 0.0016670313461274247,
        "Eccentricity": 0.0,
        "Inclination(deg)": 60.0,
        "Latitude(deg)": 57.06269157351181,
        "Longitude(deg)": -88.22837715181855,
        "Mean Anomaly(deg)": -284.62380167261074,
        "RAAN(deg)": 309.99327921376414,
        "Satellite Name": "Test1 1368",
        "Satellite Number": 1368,
        "Semi-Major Axis(m)": 6980739.136638005,
        "Time(s)": 160
    },
    {
        "Altitude(m)": 611567.4818601417,
        "Argument of Periapsis(deg)": 0.0017712208052603888,
        "Eccentricity": 0.0,
        "Inclination(deg)": 60.0,
        "Latitude(deg)": 57.30678625805897,
        "Longitude(deg)": -87.2214528026327,
        "Mean Anomaly(deg)": -284.00369552714886,
        "RAAN(deg)": 309.99285916462435,
        "Satellite Name": "Test1 1368",
        "Satellite Number": 1368,
        "Semi-Major Axis(m)": 6980739.136638005,
        "Time(s)": 170
    },
    {
        "Altitude(m)": 611619.0378857133,
        "Argument of Periapsis(deg)": 0.001875410264393353,
        "Eccentricity": 0.0,
        "Inclination(deg)": 60.0,
        "Latitude(deg)": 57.542023188418774,
        "Longitude(deg)": -86.20081094643584,
        "Mean Anomaly(deg)": -283.3835893816871,
        "RAAN(deg)": 309.9924391154846,
        "Satellite Name": "Test1 1368",
        "Satellite Number": 1368,
        "Semi-Major Axis(m)": 6980739.136638005,
        "Time(s)": 180
    },
    {
        "Altitude(m)": 611668.4698466898,
        "Argument of Periapsis(deg)": 0.0019795997235263173,
        "Eccentricity": 0.0,
        "Inclination(deg)": 60.0,
        "Latitude(deg)": 57.76820808105676,
        "Longitude(deg)": -85.16667151217953,
        "Mean Anomaly(deg)": -282.7634832362252,
        "RAAN(deg)": 309.9920190663449,
        "Satellite Name": "Test1 1368",
        "Satellite Number": 1368,
        "Semi-Major Axis(m)": 6980739.136638005,
        "Time(s)": 190
    }
]